{
  "type": "FeatureCollection",
  "features": [
    {
      "type": "Feature",
      "properties": {
        "norad_id": 42989,
        "name": "SKYSAT-C9",
        "group": "resource",
        "lat": -79.14191631254617,
        "lon": 168.98581039089655,
        "alt_km": 470.03604460982206,
        "timestamp": "2025-12-21T20:41:07.643235+00:00",
        "meta_object_name": "SKYSAT-C9",
        "meta_object_id": "2017-068C",
        "meta_epoch": "2025-12-21T14:47:21.654240",
        "meta_mean_motion": 15.36257498,
        "meta_eccentricity": 0.00104402,
        "meta_inclination": 97.4196,
        "meta_ra_of_asc_node": 125.941,
        "meta_arg_of_pericenter": 59.3337,
        "meta_mean_anomaly": 300.8934,
        "meta_ephemeris_type": 0,
        "meta_classification_type": "U",
        "meta_norad_cat_id": 42989,
        "meta_element_set_no": 999,
        "meta_rev_at_epoch": 45544,
        "meta_bstar": 0.00030681876,
        "meta_mean_motion_dot": 0.00010783,
        "meta_mean_motion_ddot": 0,
        "tle_line1": "1 42989U 17068C   25355.61622285  .00010783  00000+0  30682-3 0  9996",
        "tle_line2": "2 42989  97.4196 125.9410 0010440  59.3337 300.8934 15.36257498455440"
      },
      "geometry": {
        "type": "Point",
        "coordinates": [
          168.98581039089655,
          -79.14191631254617
        ]
      }
    },
    {
      "type": "Feature",
      "properties": {
        "norad_id": 42990,
        "name": "SKYSAT-C8",
        "group": "resource",
        "lat": 33.82947238249665,
        "lon": -49.08020076499778,
        "alt_km": 465.12105742076255,
        "timestamp": "2025-12-21T20:41:07.643244+00:00",
        "meta_object_name": "SKYSAT-C8",
        "meta_object_id": "2017-068D",
        "meta_epoch": "2025-12-21T15:21:08.427168",
        "meta_mean_motion": 15.33101109,
        "meta_eccentricity": 0.00010473,
        "meta_inclination": 97.4289,
        "meta_ra_of_asc_node": 125.6798,
        "meta_arg_of_pericenter": 296.3414,
        "meta_mean_anomaly": 63.7721,
        "meta_ephemeris_type": 0,
        "meta_classification_type": "U",
        "meta_norad_cat_id": 42990,
        "meta_element_set_no": 999,
        "meta_rev_at_epoch": 45507,
        "meta_bstar": 0.00030233882,
        "meta_mean_motion_dot": 9.591e-05,
        "meta_mean_motion_ddot": 0,
        "tle_line1": "1 42990U 17068D   25355.63968087  .00009591  00000+0  30234-3 0  9991",
        "tle_line2": "2 42990  97.4289 125.6798 0001047 296.3414  63.7721 15.33101109455075"
      },
      "geometry": {
        "type": "Point",
        "coordinates": [
          -49.08020076499778,
          33.82947238249665
        ]
      }
    },
    {
      "type": "Feature",
      "properties": {
        "norad_id": 42991,
        "name": "SKYSAT-C7",
        "group": "resource",
        "lat": -18.454535720175777,
        "lon": 129.43262974641988,
        "alt_km": 470.18656317995374,
        "timestamp": "2025-12-21T20:41:07.643253+00:00",
        "meta_object_name": "SKYSAT-C7",
        "meta_object_id": "2017-068E",
        "meta_epoch": "2025-12-21T14:29:53.176416",
        "meta_mean_motion": 15.32498854,
        "meta_eccentricity": 0.00070975,
        "meta_inclination": 97.4298,
        "meta_ra_of_asc_node": 126.6779,
        "meta_arg_of_pericenter": 29.4906,
        "meta_mean_anomaly": 330.6735,
        "meta_ephemeris_type": 0,
        "meta_classification_type": "U",
        "meta_norad_cat_id": 42991,
        "meta_element_set_no": 999,
        "meta_rev_at_epoch": 45513,
        "meta_bstar": 0.00028728053,
        "meta_mean_motion_dot": 8.944e-05,
        "meta_mean_motion_ddot": 0,
        "tle_line1": "1 42991U 17068E   25355.60408769  .00008944  00000+0  28728-3 0  9991",
        "tle_line2": "2 42991  97.4298 126.6779 0007097  29.4906 330.6735 15.32498854455131"
      },
      "geometry": {
        "type": "Point",
        "coordinates": [
          129.43262974641988,
          -18.454535720175777
        ]
      }
    },
    {
      "type": "Feature",
      "properties": {
        "norad_id": 42992,
        "name": "SKYSAT-C6",
        "group": "resource",
        "lat": 69.57169884637923,
        "lon": 106.84945124028991,
        "alt_km": 460.8294484548469,
        "timestamp": "2025-12-21T20:41:07.643262+00:00",
        "meta_object_name": "SKYSAT-C6",
        "meta_object_id": "2017-068F",
        "meta_epoch": "2025-12-21T07:50:01.245120",
        "meta_mean_motion": 15.31651111,
        "meta_eccentricity": 0.0004953,
        "meta_inclination": 97.4327,
        "meta_ra_of_asc_node": 126.8308,
        "meta_arg_of_pericenter": 59.6747,
        "meta_mean_anomaly": 300.4984,
        "meta_ephemeris_type": 0,
        "meta_classification_type": "U",
        "meta_norad_cat_id": 42992,
        "meta_element_set_no": 999,
        "meta_rev_at_epoch": 45507,
        "meta_bstar": 0.00028172,
        "meta_mean_motion_dot": 8.536e-05,
        "meta_mean_motion_ddot": 0,
        "tle_line1": "1 42992U 17068F   25355.32640330  .00008536  00000+0  28172-3 0  9993",
        "tle_line2": "2 42992  97.4327 126.8308 0004953  59.6747 300.4984 15.31651111455071"
      },
      "geometry": {
        "type": "Point",
        "coordinates": [
          106.84945124028991,
          69.57169884637923
        ]
      }
    },
    {
      "type": "Feature",
      "properties": {
        "norad_id": 43111,
        "name": "CARTOSAT-2F",
        "group": "resource",
        "lat": 45.960916643183,
        "lon": -118.8907870815817,
        "alt_km": 503.40250362499046,
        "timestamp": "2025-12-21T20:41:07.643271+00:00",
        "meta_object_name": "CARTOSAT-2F",
        "meta_object_id": "2018-004A",
        "meta_epoch": "2025-12-21T15:21:27.872352",
        "meta_mean_motion": 15.19206361,
        "meta_eccentricity": 0.00013999,
        "meta_inclination": 97.4307,
        "meta_ra_of_asc_node": 53.1342,
        "meta_arg_of_pericenter": 111.2589,
        "meta_mean_anomaly": 248.8796,
        "meta_ephemeris_type": 0,
        "meta_classification_type": "U",
        "meta_norad_cat_id": 43111,
        "meta_element_set_no": 999,
        "meta_rev_at_epoch": 44037,
        "meta_bstar": 0.00031365646,
        "meta_mean_motion_dot": 6.536e-05,
        "meta_mean_motion_ddot": 0,
        "tle_line1": "1 43111U 18004A   25355.63990593  .00006536  00000+0  31366-3 0  9998",
        "tle_line2": "2 43111  97.4307  53.1342 0001399 111.2589 248.8796 15.19206361440375"
      },
      "geometry": {
        "type": "Point",
        "coordinates": [
          -118.8907870815817,
          45.960916643183
        ]
      }
    },
    {
      "type": "Feature",
      "properties": {
        "norad_id": 43259,
        "name": "GAOFEN-1 02",
        "group": "resource",
        "lat": -63.244418212094814,
        "lon": 70.02060366390286,
        "alt_km": 648.4857021495973,
        "timestamp": "2025-12-21T20:41:07.643280+00:00",
        "meta_object_name": "GAOFEN-1 02",
        "meta_object_id": "2018-031A",
        "meta_epoch": "2025-12-21T14:28:14.789280",
        "meta_mean_motion": 14.764336,
        "meta_eccentricity": 0.00023565,
        "meta_inclination": 98.0799,
        "meta_ra_of_asc_node": 53.3957,
        "meta_arg_of_pericenter": 181.9347,
        "meta_mean_anomaly": 178.1854,
        "meta_ephemeris_type": 0,
        "meta_classification_type": "U",
        "meta_norad_cat_id": 43259,
        "meta_element_set_no": 999,
        "meta_rev_at_epoch": 41649,
        "meta_bstar": 0.00018395797,
        "meta_mean_motion_dot": 1.227e-05,
        "meta_mean_motion_ddot": 0,
        "tle_line1": "1 43259U 18031A   25355.60294895  .00001227  00000+0  18396-3 0  9990",
        "tle_line2": "2 43259  98.0799  53.3957 0002356 181.9347 178.1854 14.76433600416490"
      },
      "geometry": {
        "type": "Point",
        "coordinates": [
          70.02060366390286,
          -63.244418212094814
        ]
      }
    },
    {
      "type": "Feature",
      "properties": {
        "norad_id": 43260,
        "name": "GAOFEN-1 03",
        "group": "resource",
        "lat": 50.7361185876746,
        "lon": 43.52378065889369,
        "alt_km": 636.7545831032803,
        "timestamp": "2025-12-21T20:41:07.643289+00:00",
        "meta_object_name": "GAOFEN-1 03",
        "meta_object_id": "2018-031B",
        "meta_epoch": "2025-12-21T13:56:50.045856",
        "meta_mean_motion": 14.76453577,
        "meta_eccentricity": 0.00017,
        "meta_inclination": 98.0786,
        "meta_ra_of_asc_node": 53.2493,
        "meta_arg_of_pericenter": 275.3454,
        "meta_mean_anomaly": 84.7562,
        "meta_ephemeris_type": 0,
        "meta_classification_type": "U",
        "meta_norad_cat_id": 43260,
        "meta_element_set_no": 999,
        "meta_rev_at_epoch": 41648,
        "meta_bstar": 0.00011330216,
        "meta_mean_motion_dot": 7.36e-06,
        "meta_mean_motion_ddot": 0,
        "tle_line1": "1 43260U 18031B   25355.58113479  .00000736  00000+0  11330-3 0  9992",
        "tle_line2": "2 43260  98.0786  53.2493 0001700 275.3454  84.7562 14.76453577416483"
      },
      "geometry": {
        "type": "Point",
        "coordinates": [
          43.52378065889369,
          50.7361185876746
        ]
      }
    }
  ]
}